CCSDS_OMM_VERS = 2.0
CREATION_DATE  = 
ORIGINATOR     = 

OBJECT_NAME    = SL-16 R/B
OBJECT_ID      = 1998-043G
CENTER_NAME    = EARTH
REF_FRAME      = TEME
TIME_SYSTEM    = UTC
MEAN_ELEMENT_THEORY = SGP/SGP4

EPOCH          = 2026-01-27T11:24:32.616864
MEAN_MOTION    = 14.26039184
ECCENTRICITY   = .0010618
INCLINATION    = 98.8188
RA_OF_ASC_NODE = 340.5646
ARG_OF_PERICENTER = 129.9474
MEAN_ANOMALY   = 230.2640

EPHEMERIS_TYPE = 0
CLASSIFICATION_TYPE = U
NORAD_CAT_ID   = 25400
ELEMENT_SET_NO = 999
REV_AT_EPOCH   = 43311
BSTAR          = .82872E-4
MEAN_MOTION_DOT = .153E-5
MEAN_MOTION_DDOT = 0

CCSDS_OMM_VERS = 2.0
CREATION_DATE  = 
ORIGINATOR     = 

OBJECT_NAME    = SL-16 R/B
OBJECT_ID      = 1998-045B
CENTER_NAME    = EARTH
REF_FRAME      = TEME
TIME_SYSTEM    = UTC
MEAN_ELEMENT_THEORY = SGP/SGP4

EPOCH          = 2026-01-27T02:40:33.675168
MEAN_MOTION    = 14.16187140
ECCENTRICITY   = .00050905
INCLINATION    = 71.0105
RA_OF_ASC_NODE = 269.0130
ARG_OF_PERICENTER = 88.4856
MEAN_ANOMALY   = 271.6851

EPHEMERIS_TYPE = 0
CLASSIFICATION_TYPE = U
NORAD_CAT_ID   = 25407
ELEMENT_SET_NO = 999
REV_AT_EPOCH   = 42121
BSTAR          = .41123757E-4
MEAN_MOTION_DOT = .34E-6
MEAN_MOTION_DDOT = 0

CCSDS_OMM_VERS = 2.0
CREATION_DATE  = 
ORIGINATOR     = 

OBJECT_NAME    = ISS (ZARYA)
OBJECT_ID      = 1998-067A
CENTER_NAME    = EARTH
REF_FRAME      = TEME
TIME_SYSTEM    = UTC
MEAN_ELEMENT_THEORY = SGP/SGP4

EPOCH          = 2026-01-27T03:26:19.576032
MEAN_MOTION    = 15.48216781
ECCENTRICITY   = .001115
INCLINATION    = 51.6321
RA_OF_ASC_NODE = 277.7306
ARG_OF_PERICENTER = 34.3982
MEAN_ANOMALY   = 325.7726

EPHEMERIS_TYPE = 0
CLASSIFICATION_TYPE = U
NORAD_CAT_ID   = 25544
ELEMENT_SET_NO = 999
REV_AT_EPOCH   = 54989
BSTAR          = .21756E-3
MEAN_MOTION_DOT = .11252E-3
MEAN_MOTION_DDOT = 0

CCSDS_OMM_VERS = 2.0
CREATION_DATE  = 
ORIGINATOR     = 

OBJECT_NAME    = CZ-4B R/B
OBJECT_ID      = 1999-025C
CENTER_NAME    = EARTH
REF_FRAME      = TEME
TIME_SYSTEM    = UTC
MEAN_ELEMENT_THEORY = SGP/SGP4

EPOCH          = 2026-01-27T09:14:03.162048
MEAN_MOTION    = 14.18256501
ECCENTRICITY   = .0038187
INCLINATION    = 98.6706
RA_OF_ASC_NODE = 72.6297
ARG_OF_PERICENTER = 103.4772
MEAN_ANOMALY   = 267.9360

EPHEMERIS_TYPE = 0
CLASSIFICATION_TYPE = U
NORAD_CAT_ID   = 25732
ELEMENT_SET_NO = 999
REV_AT_EPOCH   = 38231
BSTAR          = .77772E-4
MEAN_MOTION_DOT = .118E-5
MEAN_MOTION_DDOT = 0

CCSDS_OMM_VERS = 2.0
CREATION_DATE  = 
ORIGINATOR     = 

OBJECT_NAME    = OKEAN-O
OBJECT_ID      = 1999-039A
CENTER_NAME    = EARTH
REF_FRAME      = TEME
TIME_SYSTEM    = UTC
MEAN_ELEMENT_THEORY = SGP/SGP4

EPOCH          = 2026-01-27T10:03:24.365664
MEAN_MOTION    = 14.80262470
ECCENTRICITY   = .0001896
INCLINATION    = 97.9530
RA_OF_ASC_NODE = 87.7116
ARG_OF_PERICENTER = 96.6242
MEAN_ANOMALY   = 263.5186

EPHEMERIS_TYPE = 0
CLASSIFICATION_TYPE = U
NORAD_CAT_ID   = 25860
ELEMENT_SET_NO = 999
REV_AT_EPOCH   = 42828
BSTAR          = .18085E-3
MEAN_MOTION_DOT = .1324E-4
MEAN_MOTION_DDOT = 0

CCSDS_OMM_VERS = 2.0
CREATION_DATE  = 
ORIGINATOR     = 

OBJECT_NAME    = SL-16 R/B
OBJECT_ID      = 1999-039B
CENTER_NAME    = EARTH
REF_FRAME      = TEME
TIME_SYSTEM    = UTC
MEAN_ELEMENT_THEORY = SGP/SGP4

EPOCH          = 2026-01-27T04:01:40.944000
MEAN_MOTION    = 14.81668089
ECCENTRICITY   = .00155855
INCLINATION    = 98.0055
RA_OF_ASC_NODE = 86.3075
ARG_OF_PERICENTER = 36.6825
MEAN_ANOMALY   = 323.5451

EPHEMERIS_TYPE = 0
CLASSIFICATION_TYPE = U
NORAD_CAT_ID   = 25861
ELEMENT_SET_NO = 999
REV_AT_EPOCH   = 43071
BSTAR          = .13383498E-3
MEAN_MOTION_DOT = .1001E-4
MEAN_MOTION_DDOT = 0

CCSDS_OMM_VERS = 2.0
CREATION_DATE  = 
ORIGINATOR     = 

OBJECT_NAME    = DELTA 2 R/B
OBJECT_ID      = 1999-041E
CENTER_NAME    = EARTH
REF_FRAME      = TEME
TIME_SYSTEM    = UTC
MEAN_ELEMENT_THEORY = SGP/SGP4

EPOCH          = 2026-01-27T12:32:57.333120
MEAN_MOTION    = 14.11648423
ECCENTRICITY   = .0502774
INCLINATION    = 51.7633
RA_OF_ASC_NODE = 105.6666
ARG_OF_PERICENTER = 226.7878
MEAN_ANOMALY   = 129.0019

EPHEMERIS_TYPE = 0
CLASSIFICATION_TYPE = U
NORAD_CAT_ID   = 25876
ELEMENT_SET_NO = 999
REV_AT_EPOCH   = 35721
BSTAR          = .72261E-3
MEAN_MOTION_DOT = .4264E-4
MEAN_MOTION_DDOT = 0

CCSDS_OMM_VERS = 2.0
CREATION_DATE  = 
ORIGINATOR     = 

OBJECT_NAME    = HELIOS 1B
OBJECT_ID      = 1999-064A
CENTER_NAME    = EARTH
REF_FRAME      = TEME
TIME_SYSTEM    = UTC
MEAN_ELEMENT_THEORY = SGP/SGP4

EPOCH          = 2026-01-27T11:33:37.289376
MEAN_MOTION    = 14.87516266
ECCENTRICITY   = .0001439
INCLINATION    = 98.1735
RA_OF_ASC_NODE = 288.5066
ARG_OF_PERICENTER = 130.2548
MEAN_ANOMALY   = 229.8793

EPHEMERIS_TYPE = 0
CLASSIFICATION_TYPE = U
NORAD_CAT_ID   = 25977
ELEMENT_SET_NO = 999
REV_AT_EPOCH   = 67913
BSTAR          = .38775E-3
MEAN_MOTION_DOT = .3459E-4
MEAN_MOTION_DDOT = 0

CCSDS_OMM_VERS = 2.0
CREATION_DATE  = 
ORIGINATOR     = 

OBJECT_NAME    = TERRA
OBJECT_ID      = 1999-068A
CENTER_NAME    = EARTH
REF_FRAME      = TEME
TIME_SYSTEM    = UTC
MEAN_ELEMENT_THEORY = SGP/SGP4

EPOCH          = 2026-01-27T11:52:24.725568
MEAN_MOTION    = 14.60966537
ECCENTRICITY   = .0001474
INCLINATION    = 97.9680
RA_OF_ASC_NODE = 82.4852
ARG_OF_PERICENTER = 345.1282
MEAN_ANOMALY   = 123.4431

EPHEMERIS_TYPE = 0
CLASSIFICATION_TYPE = U
NORAD_CAT_ID   = 25994
ELEMENT_SET_NO = 999
REV_AT_EPOCH   = 38906
BSTAR          = .17609E-3
MEAN_MOTION_DOT = .818E-5
MEAN_MOTION_DDOT = 0

CCSDS_OMM_VERS = 2.0
CREATION_DATE  = 
ORIGINATOR     = 

OBJECT_NAME    = SL-16 R/B
OBJECT_ID      = 2000-006B
CENTER_NAME    = EARTH
REF_FRAME      = TEME
TIME_SYSTEM    = UTC
MEAN_ELEMENT_THEORY = SGP/SGP4

EPOCH          = 2026-01-27T11:15:51.975648
MEAN_MOTION    = 14.15815692
ECCENTRICITY   = .0018586
INCLINATION    = 71.0013
RA_OF_ASC_NODE = 184.5060
ARG_OF_PERICENTER = 247.0099
MEAN_ANOMALY   = 112.9063

EPHEMERIS_TYPE = 0
CLASSIFICATION_TYPE = U
NORAD_CAT_ID   = 26070
ELEMENT_SET_NO = 999
REV_AT_EPOCH   = 34272
BSTAR          = .19908E-3
MEAN_MOTION_DOT = .344E-5
MEAN_MOTION_DDOT = 0

CCSDS_OMM_VERS = 2.0
CREATION_DATE  = 
ORIGINATOR     = 

OBJECT_NAME    = TITAN 4B R/B
OBJECT_ID      = 2000-047B
CENTER_NAME    = EARTH
REF_FRAME      = TEME
TIME_SYSTEM    = UTC
MEAN_ELEMENT_THEORY = SGP/SGP4

EPOCH          = 2026-01-27T11:29:49.217568
MEAN_MOTION    = 15.09200354
ECCENTRICITY   = .0036778
INCLINATION    = 67.9889
RA_OF_ASC_NODE = 156.3597
ARG_OF_PERICENTER = 86.9330
MEAN_ANOMALY   = 273.6026

EPHEMERIS_TYPE = 0
CLASSIFICATION_TYPE = U
NORAD_CAT_ID   = 26474
ELEMENT_SET_NO = 999
REV_AT_EPOCH   = 38669
BSTAR          = .41604E-3
MEAN_MOTION_DOT = .6605E-4
MEAN_MOTION_DDOT = 0

CCSDS_OMM_VERS = 2.0
CREATION_DATE  = 
ORIGINATOR     = 

OBJECT_NAME    = ENVISAT
OBJECT_ID      = 2002-009A
CENTER_NAME    = EARTH
REF_FRAME      = TEME
TIME_SYSTEM    = UTC
MEAN_ELEMENT_THEORY = SGP/SGP4

EPOCH          = 2026-01-27T11:00:23.567040
MEAN_MOTION    = 14.39020341
ECCENTRICITY   = .0001234
INCLINATION    = 98.3662
RA_OF_ASC_NODE = 342.0558
ARG_OF_PERICENTER = 91.6633
MEAN_ANOMALY   = 17.5512

EPHEMERIS_TYPE = 0
CLASSIFICATION_TYPE = U
NORAD_CAT_ID   = 27386
ELEMENT_SET_NO = 999
REV_AT_EPOCH   = 25324
BSTAR          = .10072E-3
MEAN_MOTION_DOT = .268E-5
MEAN_MOTION_DDOT = 0

