SL-16 R/B               
1 25400U 98043G   26027.47537751  .00000153  00000+0  82872-4 0  9990
2 25400  98.8188 340.5646 0010618 129.9474 230.2640 14.26039184433112
SL-16 R/B               
1 25407U 98045B   26027.11150087  .00000034  00000+0  41124-4 0  9996
2 25407  71.0105 269.0130 0005090  88.4856 271.6851 14.16187140421211
ISS (ZARYA)             
1 25544U 98067A   26027.14328213  .00011252  00000+0  21756-3 0  9995
2 25544  51.6321 277.7306 0011150  34.3982 325.7726 15.48216781549899
CZ-4B R/B               
1 25732U 99025C   26027.38475882  .00000118  00000+0  77772-4 0  9999
2 25732  98.6706  72.6297 0038187 103.4772 267.9360 14.18256501382314
OKEAN-O                 
1 25860U 99039A   26027.41903201  .00001324  00000+0  18085-3 0  9992
2 25860  97.9530  87.7116 0001896  96.6242 263.5186 14.80262470428288
SL-16 R/B               
1 25861U 99039B   26027.16783500  .00001001  00000+0  13383-3 0  9991
2 25861  98.0055  86.3075 0015585  36.6825 323.5451 14.81668089430713
DELTA 2 R/B             
1 25876U 99041E   26027.52288580  .00004264  00000+0  72261-3 0  9992
2 25876  51.7633 105.6666 0502774 226.7878 129.0019 14.11648423357214
HELIOS 1B               
1 25977U 99064A   26027.48168159  .00003459  00000+0  38775-3 0  9990
2 25977  98.1735 288.5066 0001439 130.2548 229.8793 14.87516266679132
TERRA                   
1 25994U 99068A   26027.49473062  .00000818  00000+0  17609-3 0  9995
2 25994  97.9680  82.4852 0001474 345.1282 123.4431 14.60966537389061
SL-16 R/B               
1 26070U 00006B   26027.46935157  .00000344  00000+0  19908-3 0  9998
2 26070  71.0013 184.5060 0018586 247.0099 112.9063 14.15815692342724
TITAN 4B R/B            
1 26474U 00047B   26027.47904187  .00006605  00000+0  41604-3 0  9995
2 26474  67.9889 156.3597 0036778  86.9330 273.6026 15.09200354386695
ENVISAT                 
1 27386U 02009A   26027.45860610  .00000268  00000+0  10072-3 0  9992
2 27386  98.3662 342.0558 0001234  91.6633  17.5512 14.39020341253241
